[{"OBJECT_NAME":"STARLINK-33692","OBJECT_ID":"2025-065K","EPOCH":"2026-03-22T03:58:10.416576","MEAN_MOTION":15.27544042,"ECCENTRICITY":0.00010992,"INCLINATION":43.0004,"RA_OF_ASC_NODE":40.443,"ARG_OF_PERICENTER":163.5007,"MEAN_ANOMALY":196.5881,"EPHEMERIS_TYPE":0,"CLASSIFICATION_TYPE":"U","NORAD_CAT_ID":63408,"ELEMENT_SET_NO":999,"REV_AT_EPOCH":5470,"BSTAR":0.00077783935,"MEAN_MOTION_DOT":0.0002118,"MEAN_MOTION_DDOT":0},{"OBJECT_NAME":"STARLINK-33693","OBJECT_ID":"2025-065L","EPOCH":"2026-03-21T22:39:23.259744","MEAN_MOTION":15.27615931,"ECCENTRICITY":0.0002071,"INCLINATION":43.0055,"RA_OF_ASC_NODE":37.904,"ARG_OF_PERICENTER":279.7173,"MEAN_ANOMALY":80.3445,"EPHEMERIS_TYPE":0,"CLASSIFICATION_TYPE":"U","NORAD_CAT_ID":63409,"ELEMENT_SET_NO":999,"REV_AT_EPOCH":5471,"BSTAR":0.0015113086,"MEAN_MOTION_DOT":0.00041607,"MEAN_MOTION_DDOT":0},{"OBJECT_NAME":"STARLINK-33677","OBJECT_ID":"2025-065M","EPOCH":"2026-03-21T22:28:16.826304","MEAN_MOTION":15.27586916,"ECCENTRICITY":0.00019912,"INCLINATION":43.0059,"RA_OF_ASC_NODE":37.8418,"ARG_OF_PERICENTER":251.0196,"MEAN_ANOMALY":109.044,"EPHEMERIS_TYPE":0,"CLASSIFICATION_TYPE":"U","NORAD_CAT_ID":63410,"ELEMENT_SET_NO":999,"REV_AT_EPOCH":5471,"BSTAR":0.0014262537,"MEAN_MOTION_DOT":0.00039203,"MEAN_MOTION_DDOT":0},{"OBJECT_NAME":"STARLINK-33647","OBJECT_ID":"2025-065N","EPOCH":"2026-03-22T04:19:41.185920","MEAN_MOTION":15.27562101,"ECCENTRICITY":8.512e-5,"INCLINATION":42.9977,"RA_OF_ASC_NODE":44.0277,"ARG_OF_PERICENTER":143.3381,"MEAN_ANOMALY":216.7529,"EPHEMERIS_TYPE":0,"CLASSIFICATION_TYPE":"U","NORAD_CAT_ID":63411,"ELEMENT_SET_NO":999,"REV_AT_EPOCH":5466,"BSTAR":-0.00037076062,"MEAN_MOTION_DOT":-0.00010444,"MEAN_MOTION_DDOT":0},{"OBJECT_NAME":"STARLINK-33645","OBJECT_ID":"2025-065P","EPOCH":"2026-03-21T22:16:28.176096","MEAN_MOTION":15.27611416,"ECCENTRICITY":1.742e-5,"INCLINATION":43.0017,"RA_OF_ASC_NODE":41.1745,"ARG_OF_PERICENTER":314.1503,"MEAN_ANOMALY":45.9335,"EPHEMERIS_TYPE":0,"CLASSIFICATION_TYPE":"U","NORAD_CAT_ID":63412,"ELEMENT_SET_NO":999,"REV_AT_EPOCH":5467,"BSTAR":0.0010030065,"MEAN_MOTION_DOT":0.00027468,"MEAN_MOTION_DDOT":0},{"OBJECT_NAME":"STARLINK-33670","OBJECT_ID":"2025-065Q","EPOCH":"2026-03-21T22:22:43.279968","MEAN_MOTION":15.27594708,"ECCENTRICITY":0.00016046,"INCLINATION":43.0056,"RA_OF_ASC_NODE":37.7837,"ARG_OF_PERICENTER":263.1771,"MEAN_ANOMALY":96.8899,"EPHEMERIS_TYPE":0,"CLASSIFICATION_TYPE":"U","NORAD_CAT_ID":63413,"ELEMENT_SET_NO":999,"REV_AT_EPOCH":5471,"BSTAR":0.0014758403,"MEAN_MOTION_DOT":0.00040592,"MEAN_MOTION_DDOT":0},{"OBJECT_NAME":"STARLINK-33644","OBJECT_ID":"2025-065R","EPOCH":"2026-03-22T04:11:48.726528","MEAN_MOTION":15.27558324,"ECCENTRICITY":0.00029842,"INCLINATION":43.0045,"RA_OF_ASC_NODE":37.0095,"ARG_OF_PERICENTER":280.2526,"MEAN_ANOMALY":79.7989,"EPHEMERIS_TYPE":0,"CLASSIFICATION_TYPE":"U","NORAD_CAT_ID":63414,"ELEMENT_SET_NO":999,"REV_AT_EPOCH":5474,"BSTAR":-0.00053457846,"MEAN_MOTION_DOT":-0.00014936,"MEAN_MOTION_DDOT":0},{"OBJECT_NAME":"STARLINK-33664","OBJECT_ID":"2025-065S","EPOCH":"2026-03-22T00:07:59.292768","MEAN_MOTION":15.27571504,"ECCENTRICITY":0.0001919,"INCLINATION":43.0045,"RA_OF_ASC_NODE":37.4639,"ARG_OF_PERICENTER":290.3623,"MEAN_ANOMALY":69.7022,"EPHEMERIS_TYPE":0,"CLASSIFICATION_TYPE":"U","NORAD_CAT_ID":63415,"ELEMENT_SET_NO":999,"REV_AT_EPOCH":5472,"BSTAR":0.00034145677,"MEAN_MOTION_DOT":9.143e-5,"MEAN_MOTION_DDOT":0},{"OBJECT_NAME":"STARLINK-33649","OBJECT_ID":"2025-065T","EPOCH":"2026-03-21T22:15:18.996480","MEAN_MOTION":15.276045,"ECCENTRICITY":0.0001547,"INCLINATION":43.0048,"RA_OF_ASC_NODE":37.7236,"ARG_OF_PERICENTER":249.5715,"MEAN_ANOMALY":110.497,"EPHEMERIS_TYPE":0,"CLASSIFICATION_TYPE":"U","NORAD_CAT_ID":63416,"ELEMENT_SET_NO":999,"REV_AT_EPOCH":5471,"BSTAR":0.0012714895,"MEAN_MOTION_DOT":0.00034919,"MEAN_MOTION_DDOT":0},{"OBJECT_NAME":"STARLINK-33535","OBJECT_ID":"2025-065U","EPOCH":"2026-03-22T00:06:07.627680","MEAN_MOTION":15.27558127,"ECCENTRICITY":0.00034222,"INCLINATION":43.0016,"RA_OF_ASC_NODE":37.4273,"ARG_OF_PERICENTER":294.726,"MEAN_ANOMALY":65.3235,"EPHEMERIS_TYPE":0,"CLASSIFICATION_TYPE":"U","NORAD_CAT_ID":63417,"ELEMENT_SET_NO":999,"REV_AT_EPOCH":5472,"BSTAR":-0.0012510282,"MEAN_MOTION_DOT":-0.00034512,"MEAN_MOTION_DDOT":0},{"OBJECT_NAME":"STARLINK-33703","OBJECT_ID":"2025-065V","EPOCH":"2026-03-22T03:44:03.909120","MEAN_MOTION":15.27581315,"ECCENTRICITY":5.69e-5,"INCLINATION":42.9999,"RA_OF_ASC_NODE":36.8631,"ARG_OF_PERICENTER":200.7595,"MEAN_ANOMALY":159.3233,"EPHEMERIS_TYPE":0,"CLASSIFICATION_TYPE":"U","NORAD_CAT_ID":63418,"ELEMENT_SET_NO":999,"REV_AT_EPOCH":5474,"BSTAR":0.00091677457,"MEAN_MOTION_DOT":0.00025052,"MEAN_MOTION_DDOT":0},{"OBJECT_NAME":"STARLINK-33709","OBJECT_ID":"2025-065W","EPOCH":"2026-03-22T03:49:37.146144","MEAN_MOTION":15.27550529,"ECCENTRICITY":2.657e-5,"INCLINATION":42.9993,"RA_OF_ASC_NODE":36.8959,"ARG_OF_PERICENTER":263.1235,"MEAN_ANOMALY":96.9587,"EPHEMERIS_TYPE":0,"CLASSIFICATION_TYPE":"U","NORAD_CAT_ID":63419,"ELEMENT_SET_NO":999,"REV_AT_EPOCH":5474,"BSTAR":-0.00048466228,"MEAN_MOTION_DOT":-0.00013562,"MEAN_MOTION_DDOT":0},{"OBJECT_NAME":"STARLINK-33698","OBJECT_ID":"2025-065X","EPOCH":"2026-03-22T04:20:51.059328","MEAN_MOTION":15.2756209,"ECCENTRICITY":0.00020796,"INCLINATION":43.0018,"RA_OF_ASC_NODE":36.1773,"ARG_OF_PERICENTER":286.4516,"MEAN_ANOMALY":73.6107,"EPHEMERIS_TYPE":0,"CLASSIFICATION_TYPE":"U","NORAD_CAT_ID":63420,"ELEMENT_SET_NO":999,"REV_AT_EPOCH":5475,"BSTAR":-0.00020920691,"MEAN_MOTION_DOT":-6.012e-5,"MEAN_MOTION_DDOT":0},{"OBJECT_NAME":"STARLINK-33606","OBJECT_ID":"2025-065Y","EPOCH":"2026-03-21T22:30:06.918912","MEAN_MOTION":15.27600142,"ECCENTRICITY":0.00017652,"INCLINATION":43.0072,"RA_OF_ASC_NODE":37.7962,"ARG_OF_PERICENTER":249.9665,"MEAN_ANOMALY":110.0997,"EPHEMERIS_TYPE":0,"CLASSIFICATION_TYPE":"U","NORAD_CAT_ID":63421,"ELEMENT_SET_NO":999,"REV_AT_EPOCH":5471,"BSTAR":0.0014095049,"MEAN_MOTION_DOT":0.00038752,"MEAN_MOTION_DDOT":0},{"OBJECT_NAME":"STARLINK-33686","OBJECT_ID":"2025-065Z","EPOCH":"2026-03-21T22:44:55.351104","MEAN_MOTION":15.27585572,"ECCENTRICITY":0.00039167,"INCLINATION":43.003,"RA_OF_ASC_NODE":37.8757,"ARG_OF_PERICENTER":293.7749,"MEAN_ANOMALY":66.2692,"EPHEMERIS_TYPE":0,"CLASSIFICATION_TYPE":"U","NORAD_CAT_ID":63422,"ELEMENT_SET_NO":999,"REV_AT_EPOCH":5471,"BSTAR":0.00046018709,"MEAN_MOTION_DOT":0.00012426,"MEAN_MOTION_DDOT":0},{"OBJECT_NAME":"STARLINK-33675","OBJECT_ID":"2025-065AA","EPOCH":"2026-03-22T04:15:16.893504","MEAN_MOTION":15.27617466,"ECCENTRICITY":0.00019889,"INCLINATION":43.004,"RA_OF_ASC_NODE":36.1564,"ARG_OF_PERICENTER":277.5585,"MEAN_ANOMALY":82.5041,"EPHEMERIS_TYPE":0,"CLASSIFICATION_TYPE":"U","NORAD_CAT_ID":63423,"ELEMENT_SET_NO":999,"REV_AT_EPOCH":5475,"BSTAR":0.0010430775,"MEAN_MOTION_DOT":0.00028586,"MEAN_MOTION_DDOT":0}]
