STARLINK-33692          
1 63408U 25065K   26081.16539834  .00021180  00000+0  77784-3 0  9992
2 63408  43.0004  40.4430 0001099 163.5007 196.5881 15.27544042 54708
STARLINK-33693          
1 63409U 25065L   26080.94401921  .00041607  00000+0  15113-2 0  9996
2 63409  43.0055  37.9040 0002071 279.7173  80.3445 15.27615931 54711
STARLINK-33677          
1 63410U 25065M   26080.93630586  .00039203  00000+0  14263-2 0  9992
2 63410  43.0059  37.8418 0001991 251.0196 109.0440 15.27586916 54717
STARLINK-33647          
1 63411U 25065N   26081.18033780 -.00010444  00000+0 -37076-3 0  9990
2 63411  42.9977  44.0277 0000851 143.3381 216.7529 15.27562101 54669
STARLINK-33645          
1 63412U 25065P   26080.92810389  .00027468  00000+0  10030-2 0  9992
2 63412  43.0017  41.1745 0000174 314.1503  45.9335 15.27611416 54679
STARLINK-33670          
1 63413U 25065Q   26080.93244537  .00040592  00000+0  14758-2 0  9994
2 63413  43.0056  37.7837 0001604 263.1771  96.8899 15.27594708 54714
STARLINK-33644          
1 63414U 25065R   26081.17486952 -.00014936  00000+0 -53458-3 0  9997
2 63414  43.0045  37.0095 0002984 280.2526  79.7989 15.27558324 54749
STARLINK-33664          
1 63415U 25065S   26081.00554737  .00009143  00000+0  34146-3 0  9992
2 63415  43.0045  37.4639 0001919 290.3623  69.7022 15.27571504 54725
STARLINK-33649          
1 63416U 25065T   26080.92730320  .00034919  00000+0  12715-2 0  9993
2 63416  43.0048  37.7236 0001547 249.5715 110.4970 15.27604500 54718
STARLINK-33535          
1 63417U 25065U   26081.00425495 -.00034512  00000+0 -12510-2 0  9992
2 63417  43.0016  37.4273 0003422 294.7260  65.3235 15.27558127 54729
STARLINK-33703          
1 63418U 25065V   26081.15560080  .00025052  00000+0  91677-3 0  9998
2 63418  42.9999  36.8631 0000569 200.7595 159.3233 15.27581315 54745
STARLINK-33709          
1 63419U 25065W   26081.15945771 -.00013562  00000+0 -48466-3 0  9996
2 63419  42.9993  36.8959 0000265 263.1235  96.9587 15.27550529 54741
STARLINK-33698          
1 63420U 25065X   26081.18114652 -.00006012  00000+0 -20921-3 0  9995
2 63420  43.0018  36.1773 0002079 286.4516  73.6107 15.27562090 54752
STARLINK-33606          
1 63421U 25065Y   26080.93758008  .00038752  00000+0  14095-2 0  9995
2 63421  43.0072  37.7962 0001765 249.9665 110.0997 15.27600142 54710
STARLINK-33686          
1 63422U 25065Z   26080.94786286  .00012426  00000+0  46019-3 0  9998
2 63422  43.0030  37.8757 0003916 293.7749  66.2692 15.27585572 54711
STARLINK-33675          
1 63423U 25065AA  26081.17727886  .00028586  00000+0  10431-2 0  9998
2 63423  43.0040  36.1564 0001988 277.5585  82.5041 15.27617466 54757
